STARLINK-38047          
1 69745U 26150G   26194.49639275  .00278620  00000+0  14028-2 0  9993
2 69745  97.2822  32.7730 0001322 107.7417 252.3995 15.80918891  3053
STARLINK-38046          
1 69746U 26150H   26194.49447120  .00295023  00000+0  14817-2 0  9992
2 69746  97.2834  32.7772 0001371 109.3815 250.7602 15.80930417  3052
STARLINK-38067          
1 69747U 26150J   26194.58334491 -.00077722  00000+0 -52416-3 0  9993
2 69747  97.2830  32.8507 0001320  74.3628  20.9892 15.75224822  3040
STARLINK-37988          
1 69748U 26150K   26194.58334491 -.00024612  00000+0 -16460-3 0  9993
2 69748  97.2832  32.8548 0001350  77.3162  28.0415 15.75192626  3043
STARLINK-37987          
1 69749U 26150L   26194.58334491 -.00104584  00000+0 -70770-3 0  9995
2 69749  97.2834  32.8652 0001513  86.5115  42.8455 15.75228811  3047
STARLINK-38037          
1 69750U 26150M   26194.55320004  .00227124  00000+0  11572-2 0  9997
2 69750  97.2841  32.8494 0001645  87.5603 272.5853 15.80791129  3069
STARLINK-38049          
1 69751U 26150N   26194.55218279  .00234302  00000+0  11929-2 0  9990
2 69751  97.2843  32.8516 0000978  33.6979 326.4352 15.80787421  3066
STARLINK-38029          
1 69752U 26150P   26194.54643122  .00231201  00000+0  11771-2 0  9999
2 69752  97.2844  32.8591 0001063  60.8513 299.2861 15.80796353  3069
STARLINK-37965          
1 69753U 26150Q   26194.58334491 -.00027155  00000+0 -18173-3 0  9997
2 69753  97.2845  32.8879 0001227  92.7324  92.6294 15.75194705  3046
STARLINK-38048          
1 69754U 26150R   26194.54606091  .00236176  00000+0  12018-2 0  9996
2 69754  97.2841  32.8595 0000761  74.1887 285.9466 15.80795567  3067
STARLINK-38006          
1 69755U 26150S   26194.54334883  .00058242  00000+0  31053-3 0  9991
2 69755  97.2832  32.8618 0003268 339.4703  20.6433 15.80254491  3067
STARLINK-38036          
1 69756U 26150T   26194.54196566  .00106803  00000+0  55228-3 0  9993
2 69756  97.2845  32.8663 0000616 124.4224 235.7103 15.80786479  3065
STARLINK-38058          
1 69757U 26150U   26194.54171241  .00158674  00000+0  81467-3 0  9994
2 69757  97.2834  32.8655 0001595 357.7901   2.3360 15.80801549  3064
STARLINK-38066          
1 69758U 26150V   26194.54156172  .00125046  00000+0  64478-3 0  9991
2 69758  97.2847  32.8670 0001158 141.1397 218.9955 15.80798318  3069
STARLINK-38035          
1 69759U 26150W   26194.54144000  .00126491  00000+0  65228-3 0  9998
2 69759  97.2844  32.8667 0000375  44.9028 315.2271 15.80792622  3068
STARLINK-38056          
1 69760U 26150X   26194.60128279  .00059622  00000+0  30996-3 0  9992
2 69760  97.2860  32.9393 0001962 103.1615 256.9872 15.80809271  3076
STARLINK-38069          
1 69761U 26150Y   26194.58334491 -.00001606  00000+0 -76396-5 0  9992
2 69761  97.2838  32.9299 0001426  75.8434 201.9306 15.80825833  3047
STARLINK-38019          
1 69762U 26150Z   26194.58334491 -.00045769  00000+0 -30743-3 0  9995
2 69762  97.2843  32.9137 0000417  91.0068 150.3320 15.75206205  3040
KUIPER-00258            
1 69763U 26151A   26194.44453763 -.00006745  00000+0 -18165-3 0  9991
2 69763  51.8672 188.9959 0012279 164.5620 195.5743 15.35410069  1746
KUIPER-00526            
1 69764U 26151B   26194.49686315  .00009431  00000+0  26423-3 0  9997
2 69764  51.8750 188.6050 0005901 128.1674 231.9845 15.37297052  1758
KUIPER-00558            
1 69765U 26151C   26194.56536755  .00008536  00000+0  24405-3 0  9991
2 69765  51.8751 188.3115 0007696 146.7500 213.3972 15.36789887  1763
KUIPER-00569            
1 69766U 26151D   26194.56053135  .00011226  00000+0  31096-3 0  9992
2 69766  51.8774 188.2796 0005110 131.2926 228.8502 15.37449100  1765
KUIPER-00589            
1 69767U 26151E   26194.56116931  .00009097  00000+0  25453-3 0  9990
2 69767  51.8742 188.2862 0005320 134.9982 225.1436 15.37390788  1763
KUIPER-00598            
1 69768U 26151F   26194.50873950  .00305674  00000+0  83296-2 0  9994
2 69768  51.8636 188.6781 0008378 166.2010 193.9206 15.35703367  1751
KUIPER-00604            
1 69769U 26151G   26194.55512597  .00009934  00000+0  26979-3 0  9993
2 69769  51.8785 188.2423 0002810  98.7045 261.4261 15.38212378  1761
KUIPER-00609            
1 69770U 26151H   26194.55204823  .00009385  00000+0  25219-3 0  9991
2 69770  51.8788 188.2207 0001159  47.0207 313.0877 15.38610931  1762
KUIPER-00611            
1 69771U 26151J   26194.55356720  .00012077  00000+0  32347-3 0  9998
2 69771  51.8787 188.2292 0001728  90.8995 269.2190 15.38421200  1767
KUIPER-00612            
1 69772U 26151K   26194.55729886  .00010096  00000+0  27664-3 0  9991
2 69772  51.8778 188.2587 0003781 107.0931 253.0471 15.37914338  1768
KUIPER-00614            
1 69773U 26151L   26194.55575192  .00009680  00000+0  26387-3 0  9999
2 69773  51.8795 188.2439 0002887 127.0228 233.1024 15.38126955  1765
KUIPER-00615            
1 69774U 26151M   26194.49751656  .00010257  00000+0  28723-3 0  9992
2 69774  51.8771 188.6041 0006257 141.8330 218.3101 15.37209069  1753
